{
    "links": {
        "self": "http://www.neowsapp.com/rest/v1/neo/3559906?api_key=iIulBulltgU6a56xZRHN4H3l9WmuAYTsLGpBGhQ2"
    },
    "id": "3559906",
    "neo_reference_id": "3559906",
    "name": "(2011 EV73)",
    "designation": "2011 EV73",
    "nasa_jpl_url": "http://ssd.jpl.nasa.gov/sbdb.cgi?sstr=3559906",
    "absolute_magnitude_h": 28.4,
    "estimated_diameter": {
        "kilometers": {
            "estimated_diameter_min": 0.0055533491,
            "estimated_diameter_max": 0.0124176661
        },
        "meters": {
            "estimated_diameter_min": 5.5533491158,
            "estimated_diameter_max": 12.4176661257
        },
        "miles": {
            "estimated_diameter_min": 0.0034506901,
            "estimated_diameter_max": 0.0077159776
        },
        "feet": {
            "estimated_diameter_min": 18.2196499131,
            "estimated_diameter_max": 40.740375732
        }
    },
    "is_potentially_hazardous_asteroid": false,
    "close_approach_data": [
        {
            "close_approach_date": "2011-03-09",
            "close_approach_date_full": "2011-Mar-09 07:25",
            "epoch_date_close_approach": 1299655500000,
            "relative_velocity": {
                "kilometers_per_second": "5.6717897448",
                "kilometers_per_hour": "20418.443081394",
                "miles_per_hour": "12687.2264802139"
            },
            "miss_distance": {
                "astronomical": "0.0044008524",
                "lunar": "1.7119315836",
                "kilometers": "658358.145224388",
                "miles": "409084.7819290344"
            },
            "orbiting_body": "Moon"
        },
        {
            "close_approach_date": "2011-03-09",
            "close_approach_date_full": "2011-Mar-09 23:13",
            "epoch_date_close_approach": 1299712380000,
            "relative_velocity": {
                "kilometers_per_second": "5.4756759818",
                "kilometers_per_hour": "19712.4335344524",
                "miles_per_hour": "12248.5396036712"
            },
            "miss_distance": {
                "astronomical": "0.0037844627",
                "lunar": "1.4721559903",
                "kilometers": "566147.559014449",
                "miles": "351787.7805554362"
            },
            "orbiting_body": "Earth"
        }
    ],
    "orbital_data": {
        "orbit_id": "5",
        "orbit_determination_date": "2017-04-06 08:54:06",
        "first_observation_date": "2011-03-13",
        "last_observation_date": "2011-03-14",
        "data_arc_in_days": 1,
        "observations_used": 9,
        "orbit_uncertainty": "8",
        "minimum_orbit_intersection": ".00307833",
        "jupiter_tisserand_invariant": "4.402",
        "epoch_osculation": "2455634.5",
        "eccentricity": ".3609394296898983",
        "semi_major_axis": "1.535243107116657",
        "inclination": "1.853234401656547",
        "ascending_node_longitude": "352.3629907038369",
        "orbital_period": "694.8069614999858",
        "perihelion_distance": ".9811133355986232",
        "perihelion_argument": "157.1346610004472",
        "aphelion_distance": "2.08937287863469",
        "perihelion_time": "2455613.987153130074",
        "mean_anomaly": "10.62831157769497",
        "mean_motion": ".5181295236633972",
        "equinox": "J2000",
        "orbit_class": {
            "orbit_class_type": "APO",
            "orbit_class_description": "Near-Earth asteroid orbits which cross the Earth’s orbit similar to that of 1862 Apollo",
            "orbit_class_range": "a (semi-major axis) > 1.0 AU; q (perihelion) < 1.017 AU"
        }
    },
    "is_sentry_object": false
}